{
  "type": "FeatureCollection",
  "features": [
    {
      "type": "Feature",
      "properties": {
        "norad_id": 34874,
        "name": "COSMOS 2251 DEB",
        "group": "cosmos-2251-debris",
        "lat": 57.94794578606307,
        "lon": -127.15300659982941,
        "alt_km": 729.0140398505209,
        "timestamp": "2025-12-09T07:41:33.607025+00:00",
        "meta_object_name": "COSMOS 2251 DEB",
        "meta_object_id": "1993-036ACM",
        "meta_epoch": "2025-12-08T12:49:57.989280",
        "meta_mean_motion": 14.36277608,
        "meta_eccentricity": 0.00511791,
        "meta_inclination": 74.0397,
        "meta_ra_of_asc_node": 81.487,
        "meta_arg_of_pericenter": 108.123,
        "meta_mean_anomaly": 268.2931,
        "meta_ephemeris_type": 0,
        "meta_classification_type": "U",
        "meta_norad_cat_id": 34874,
        "meta_element_set_no": 999,
        "meta_rev_at_epoch": 86984,
        "meta_bstar": 0.0015220199,
        "meta_mean_motion_dot": 4.491e-05,
        "meta_mean_motion_ddot": 0,
        "tle_line1": "1 34874U 93036ACM 25342.53469895  .00004491  00000+0  15220-2 0  9991",
        "tle_line2": "2 34874  74.0397  81.4870 0051179 108.1230 268.2931 14.36277608869844"
      },
      "geometry": {
        "type": "Point",
        "coordinates": [
          -127.15300659982941,
          57.94794578606307
        ]
      }
    },
    {
      "type": "Feature",
      "properties": {
        "norad_id": 34875,
        "name": "COSMOS 2251 DEB",
        "group": "cosmos-2251-debris",
        "lat": 15.021858181800658,
        "lon": 169.02462855029475,
        "alt_km": 729.159405764648,
        "timestamp": "2025-12-09T07:41:33.607035+00:00",
        "meta_object_name": "COSMOS 2251 DEB",
        "meta_object_id": "1993-036ACN",
        "meta_epoch": "2025-12-08T22:15:07.368768",
        "meta_mean_motion": 14.48903769,
        "meta_eccentricity": 0.00160767,
        "meta_inclination": 74.0434,
        "meta_ra_of_asc_node": 165.3578,
        "meta_arg_of_pericenter": 289.2326,
        "meta_mean_anomaly": 195.3832,
        "meta_ephemeris_type": 0,
        "meta_classification_type": "U",
        "meta_norad_cat_id": 34875,
        "meta_element_set_no": 999,
        "meta_rev_at_epoch": 87700,
        "meta_bstar": 0.0005734511,
        "meta_mean_motion_dot": 2.147e-05,
        "meta_mean_motion_ddot": 0,
        "tle_line1": "1 34875U 93036ACN 25342.92716862  .00002147  00000+0  57345-3 0  9995",
        "tle_line2": "2 34875  74.0434 165.3578 0016076 289.2326 195.3832 14.48903769877002"
      },
      "geometry": {
        "type": "Point",
        "coordinates": [
          169.02462855029475,
          15.021858181800658
        ]
      }
    },
    {
      "type": "Feature",
      "properties": {
        "norad_id": 34878,
        "name": "COSMOS 2251 DEB",
        "group": "cosmos-2251-debris",
        "lat": -11.254883260393129,
        "lon": 49.466869681265095,
        "alt_km": 874.5178643769432,
        "timestamp": "2025-12-09T07:41:33.607046+00:00",
        "meta_object_name": "COSMOS 2251 DEB",
        "meta_object_id": "1993-036ACR",
        "meta_epoch": "2025-12-08T23:39:26.038656",
        "meta_mean_motion": 13.44184133,
        "meta_eccentricity": 0.04353184,
        "meta_inclination": 73.9652,
        "meta_ra_of_asc_node": 53.2785,
        "meta_arg_of_pericenter": 37.5455,
        "meta_mean_anomaly": 134.9376,
        "meta_ephemeris_type": 0,
        "meta_classification_type": "U",
        "meta_norad_cat_id": 34878,
        "meta_element_set_no": 999,
        "meta_rev_at_epoch": 81222,
        "meta_bstar": 0.00073751796,
        "meta_mean_motion_dot": 7.37e-06,
        "meta_mean_motion_ddot": 0,
        "tle_line1": "1 34878U 93036ACR 25342.98571804  .00000737  00000+0  73752-3 0  9992",
        "tle_line2": "2 34878  73.9652  53.2785 0435318  37.5455 134.9376 13.44184133812227"
      },
      "geometry": {
        "type": "Point",
        "coordinates": [
          49.466869681265095,
          -11.254883260393129
        ]
      }
    },
    {
      "type": "Feature",
      "properties": {
        "norad_id": 34882,
        "name": "COSMOS 2251 DEB",
        "group": "cosmos-2251-debris",
        "lat": 16.036537001788194,
        "lon": 47.41192491399798,
        "alt_km": 744.3003025898233,
        "timestamp": "2025-12-09T07:41:33.607056+00:00",
        "meta_object_name": "COSMOS 2251 DEB",
        "meta_object_id": "1993-036ACV",
        "meta_epoch": "2025-12-08T16:09:55.171872",
        "meta_mean_motion": 14.61586274,
        "meta_eccentricity": 0.00826694,
        "meta_inclination": 74.0467,
        "meta_ra_of_asc_node": 233.3647,
        "meta_arg_of_pericenter": 1.3201,
        "meta_mean_anomaly": 358.8167,
        "meta_ephemeris_type": 0,
        "meta_classification_type": "U",
        "meta_norad_cat_id": 34882,
        "meta_element_set_no": 999,
        "meta_rev_at_epoch": 88465,
        "meta_bstar": 0.0003624177,
        "meta_mean_motion_dot": 1.858e-05,
        "meta_mean_motion_ddot": 0,
        "tle_line1": "1 34882U 93036ACV 25342.67355523  .00001858  00000+0  36242-3 0  9999",
        "tle_line2": "2 34882  74.0467 233.3647 0082669   1.3201 358.8167 14.61586274884654"
      },
      "geometry": {
        "type": "Point",
        "coordinates": [
          47.41192491399798,
          16.036537001788194
        ]
      }
    },
    {
      "type": "Feature",
      "properties": {
        "norad_id": 34883,
        "name": "COSMOS 2251 DEB",
        "group": "cosmos-2251-debris",
        "lat": -22.360308907180684,
        "lon": 62.40376541632439,
        "alt_km": 716.379736900667,
        "timestamp": "2025-12-09T07:41:33.607066+00:00",
        "meta_object_name": "COSMOS 2251 DEB",
        "meta_object_id": "1993-036ACW",
        "meta_epoch": "2025-12-08T05:19:45.369696",
        "meta_mean_motion": 14.51243218,
        "meta_eccentricity": 0.00954596,
        "meta_inclination": 74.1998,
        "meta_ra_of_asc_node": 71.1386,
        "meta_arg_of_pericenter": 257.1998,
        "meta_mean_anomaly": 101.8484,
        "meta_ephemeris_type": 0,
        "meta_classification_type": "U",
        "meta_norad_cat_id": 34883,
        "meta_element_set_no": 999,
        "meta_rev_at_epoch": 86374,
        "meta_bstar": 0.0057169955,
        "meta_mean_motion_dot": 0.00024168,
        "meta_mean_motion_ddot": 0,
        "tle_line1": "1 34883U 93036ACW 25342.22205289  .00024168  00000+0  57170-2 0  9995",
        "tle_line2": "2 34883  74.1998  71.1386 0095459 257.1998 101.8484 14.51243218863740"
      },
      "geometry": {
        "type": "Point",
        "coordinates": [
          62.40376541632439,
          -22.360308907180684
        ]
      }
    },
    {
      "type": "Feature",
      "properties": {
        "norad_id": 34884,
        "name": "COSMOS 2251 DEB",
        "group": "cosmos-2251-debris",
        "lat": 23.230338470683066,
        "lon": -123.47477420162559,
        "alt_km": 596.8037682236209,
        "timestamp": "2025-12-09T07:41:33.607078+00:00",
        "meta_object_name": "COSMOS 2251 DEB",
        "meta_object_id": "1993-036ACX",
        "meta_epoch": "2025-12-08T23:44:16.531008",
        "meta_mean_motion": 14.89771621,
        "meta_eccentricity": 0.00023639,
        "meta_inclination": 74.0173,
        "meta_ra_of_asc_node": 64.2552,
        "meta_arg_of_pericenter": 104.2592,
        "meta_mean_anomaly": 74.5166,
        "meta_ephemeris_type": 0,
        "meta_classification_type": "U",
        "meta_norad_cat_id": 34884,
        "meta_element_set_no": 999,
        "meta_rev_at_epoch": 87749,
        "meta_bstar": 0.0032818264,
        "meta_mean_motion_dot": 0.00031588,
        "meta_mean_motion_ddot": 0,
        "tle_line1": "1 34884U 93036ACX 25342.98908022  .00031588  00000+0  32818-2 0  9990",
        "tle_line2": "2 34884  74.0173  64.2552 0002363 104.2592  74.5166 14.89771621877492"
      },
      "geometry": {
        "type": "Point",
        "coordinates": [
          -123.47477420162559,
          23.230338470683066
        ]
      }
    },
    {
      "type": "Feature",
      "properties": {
        "norad_id": 34885,
        "name": "COSMOS 2251 DEB",
        "group": "cosmos-2251-debris",
        "lat": 24.541593245062856,
        "lon": 1.9466054214963138,
        "alt_km": 725.2811104545835,
        "timestamp": "2025-12-09T07:41:33.607088+00:00",
        "meta_object_name": "COSMOS 2251 DEB",
        "meta_object_id": "1993-036ACY",
        "meta_epoch": "2025-12-08T23:13:56.064864",
        "meta_mean_motion": 14.5147167,
        "meta_eccentricity": 0.00153191,
        "meta_inclination": 74.0307,
        "meta_ra_of_asc_node": 190.123,
        "meta_arg_of_pericenter": 275.2244,
        "meta_mean_anomaly": 197.9687,
        "meta_ephemeris_type": 0,
        "meta_classification_type": "U",
        "meta_norad_cat_id": 34885,
        "meta_element_set_no": 999,
        "meta_rev_at_epoch": 87424,
        "meta_bstar": 0.00077865205,
        "meta_mean_motion_dot": 3.089e-05,
        "meta_mean_motion_ddot": 0,
        "tle_line1": "1 34885U 93036ACY 25342.96801001  .00003089  00000+0  77865-3 0  9995",
        "tle_line2": "2 34885  74.0307 190.1230 0015319 275.2244 197.9687 14.51471670874240"
      },
      "geometry": {
        "type": "Point",
        "coordinates": [
          1.9466054214963138,
          24.541593245062856
        ]
      }
    }
  ]
}